[{"CCSDS_OMM_VERS":"3.0","COMMENT":"GENERATED VIA SPACE-TRACK.ORG API","CREATION_DATE":"2026-03-28T04:18:04","ORIGINATOR":"18 SPCS","OBJECT_NAME":"COSMOS 2251 DEB","OBJECT_ID":"1993-036APC","CENTER_NAME":"EARTH","REF_FRAME":"TEME","TIME_SYSTEM":"UTC","MEAN_ELEMENT_THEORY":"SGP4","EPOCH":"2026-03-27T19:12:49.281696","MEAN_MOTION":"14.88213839","ECCENTRICITY":"0.00868613","INCLINATION":"74.0112","RA_OF_ASC_NODE":"230.0229","ARG_OF_PERICENTER":"306.1737","MEAN_ANOMALY":"53.1430","EPHEMERIS_TYPE":"0","CLASSIFICATION_TYPE":"U","NORAD_CAT_ID":"35661","ELEMENT_SET_NO":"999","REV_AT_EPOCH":"89430","BSTAR":"0.00061376110000","MEAN_MOTION_DOT":"0.00006038","MEAN_MOTION_DDOT":"0.0000000000000","SEMIMAJOR_AXIS":"6981.653","PERIOD":"96.760","APOAPSIS":"664.162","PERIAPSIS":"542.875","OBJECT_TYPE":"DEBRIS","RCS_SIZE":"SMALL","COUNTRY_CODE":"CIS","LAUNCH_DATE":"1993-06-16","SITE":"PKMTR","DECAY_DATE":null,"FILE":"5102610","GP_ID":"317344159","TLE_LINE0":"0 COSMOS 2251 DEB","TLE_LINE1":"1 35661U 93036APC 26086.80057039  .00006038  00000-0  61376-3 0  9999","TLE_LINE2":"2 35661  74.0112 230.0229 0086861 306.1737  53.1430 14.88213839894309"},{"CCSDS_OMM_VERS":"3.0","COMMENT":"GENERATED VIA SPACE-TRACK.ORG API","CREATION_DATE":"2019-04-03T04:44:41","ORIGINATOR":"18 SPCS","OBJECT_NAME":"COSMOS 2251 DEB","OBJECT_ID":"1993-036APD","CENTER_NAME":"EARTH","REF_FRAME":"TEME","TIME_SYSTEM":"UTC","MEAN_ELEMENT_THEORY":"SGP4","EPOCH":"2013-03-20T08:52:01.998912","MEAN_MOTION":"14.59456226","ECCENTRICITY":"0.00545750","INCLINATION":"74.0484","RA_OF_ASC_NODE":"86.4520","ARG_OF_PERICENTER":"276.7273","MEAN_ANOMALY":"85.3655","EPHEMERIS_TYPE":"0","CLASSIFICATION_TYPE":"U","NORAD_CAT_ID":"35662","ELEMENT_SET_NO":"999","REV_AT_EPOCH":"19954","BSTAR":"0.00168160000000","MEAN_MOTION_DOT":"0.00008121","MEAN_MOTION_DDOT":"0.0000000000000","SEMIMAJOR_AXIS":"7073.067","PERIOD":"98.666","APOAPSIS":"733.533","PERIAPSIS":"656.331","OBJECT_TYPE":"DEBRIS","RCS_SIZE":"SMALL","COUNTRY_CODE":"CIS","LAUNCH_DATE":"1993-06-16","SITE":"PKMTR","DECAY_DATE":"2015-08-11","FILE":"2436542","GP_ID":"128277794","TLE_LINE0":"0 COSMOS 2251 DEB","TLE_LINE1":"1 35662U 93036APD 13079.36946758 +.00008121 +00000-0 +16816-2 0  9997","TLE_LINE2":"2 35662 074.0484 086.4520 0054575 276.7273 085.3655 14.59456226199540"},{"CCSDS_OMM_VERS":"3.0","COMMENT":"GENERATED VIA SPACE-TRACK.ORG API","CREATION_DATE":"2026-03-19T03:50:45","ORIGINATOR":"18 SPCS","OBJECT_NAME":"COSMOS 2251 DEB","OBJECT_ID":"1993-036APE","CENTER_NAME":"EARTH","REF_FRAME":"TEME","TIME_SYSTEM":"UTC","MEAN_ELEMENT_THEORY":"SGP4","EPOCH":"2026-03-18T21:14:29.520960","MEAN_MOTION":"14.67202834","ECCENTRICITY":"0.00053695","INCLINATION":"74.0172","RA_OF_ASC_NODE":"299.0963","ARG_OF_PERICENTER":"340.7882","MEAN_ANOMALY":"19.3084","EPHEMERIS_TYPE":"0","CLASSIFICATION_TYPE":"U","NORAD_CAT_ID":"35663","ELEMENT_SET_NO":"999","REV_AT_EPOCH":"74791","BSTAR":"0.00064547516000","MEAN_MOTION_DOT":"0.00003605","MEAN_MOTION_DDOT":"0.0000000000000","SEMIMAJOR_AXIS":"7048.149","PERIOD":"98.146","APOAPSIS":"673.798","PERIAPSIS":"666.229","OBJECT_TYPE":"DEBRIS","RCS_SIZE":"SMALL","COUNTRY_CODE":"CIS","LAUNCH_DATE":"1993-06-16","SITE":"PKMTR","DECAY_DATE":null,"FILE":"5091345","GP_ID":"316406614","TLE_LINE0":"0 COSMOS 2251 DEB","TLE_LINE1":"1 35663U 93036APE 26077.88506390  .00003605  00000-0  64548-3 0  9999","TLE_LINE2":"2 35663  74.0172 299.0963 0005369 340.7882  19.3084 14.67202834747919"},{"CCSDS_OMM_VERS":"3.0","COMMENT":"GENERATED VIA SPACE-TRACK.ORG API","CREATION_DATE":"2017-09-07T22:33:32","ORIGINATOR":"18 SPCS","OBJECT_NAME":"COSMOS 2251 DEB","OBJECT_ID":"1993-036APF","CENTER_NAME":"EARTH","REF_FRAME":"TEME","TIME_SYSTEM":"UTC","MEAN_ELEMENT_THEORY":"SGP4","EPOCH":"2017-05-27T06:38:01.204512","MEAN_MOTION":"15.55818808","ECCENTRICITY":"0.00033840","INCLINATION":"73.8296","RA_OF_ASC_NODE":"119.4273","ARG_OF_PERICENTER":"138.1654","MEAN_ANOMALY":"221.9820","EPHEMERIS_TYPE":"0","CLASSIFICATION_TYPE":"U","NORAD_CAT_ID":"35664","ELEMENT_SET_NO":"999","REV_AT_EPOCH":"43802","BSTAR":"0.00123250000000","MEAN_MOTION_DOT":"0.00086117","MEAN_MOTION_DDOT":"0.0000000000000","SEMIMAJOR_AXIS":"6777.910","PERIOD":"92.555","APOAPSIS":"402.069","PERIAPSIS":"397.481","OBJECT_TYPE":"DEBRIS","RCS_SIZE":"SMALL","COUNTRY_CODE":"CIS","LAUNCH_DATE":"1993-06-16","SITE":"PKMTR","DECAY_DATE":"2017-07-28","FILE":"2177944","GP_ID":"113889734","TLE_LINE0":"0 COSMOS 2251 DEB","TLE_LINE1":"1 35664U 93036APF 17147.27640283 +.00086117 +00000-0 +12325-2 0  9995","TLE_LINE2":"2 35664 073.8296 119.4273 0003384 138.1654 221.9820 15.55818808438024"},{"CCSDS_OMM_VERS":"3.0","COMMENT":"GENERATED VIA SPACE-TRACK.ORG API","CREATION_DATE":"2011-08-09T15:28:20","ORIGINATOR":"18 SPCS","OBJECT_NAME":"COSMOS 2251 DEB","OBJECT_ID":"1993-036APG","CENTER_NAME":"EARTH","REF_FRAME":"TEME","TIME_SYSTEM":"UTC","MEAN_ELEMENT_THEORY":"SGP4","EPOCH":"2011-06-05T04:17:57.530976","MEAN_MOTION":"15.48863466","ECCENTRICITY":"0.00906520","INCLINATION":"74.0770","RA_OF_ASC_NODE":"91.0419","ARG_OF_PERICENTER":"130.0337","MEAN_ANOMALY":"232.8039","EPHEMERIS_TYPE":"0","CLASSIFICATION_TYPE":"U","NORAD_CAT_ID":"35665","ELEMENT_SET_NO":"999","REV_AT_EPOCH":"10806","BSTAR":"0.00320560000000","MEAN_MOTION_DOT":"0.00208751","MEAN_MOTION_DDOT":"0.0000000000000","SEMIMAJOR_AXIS":"6798.190","PERIOD":"92.971","APOAPSIS":"481.682","PERIAPSIS":"358.429","OBJECT_TYPE":"DEBRIS","RCS_SIZE":"SMALL","COUNTRY_CODE":"CIS","LAUNCH_DATE":"1993-06-16","SITE":"PKMTR","DECAY_DATE":"2011-08-08","FILE":"1135410","GP_ID":"84430638","TLE_LINE0":"0 COSMOS 2251 DEB","TLE_LINE1":"1 35665U 93036APG 11156.17913809  .00208751  00000-0  32056-2 0  9999","TLE_LINE2":"2 35665 074.0770 091.0419 0090652 130.0337 232.8039 15.48863466108068"},{"CCSDS_OMM_VERS":"3.0","COMMENT":"GENERATED VIA SPACE-TRACK.ORG API","CREATION_DATE":"2014-03-13T23:51:14","ORIGINATOR":"18 SPCS","OBJECT_NAME":"COSMOS 2251 DEB","OBJECT_ID":"1993-036APH","CENTER_NAME":"EARTH","REF_FRAME":"TEME","TIME_SYSTEM":"UTC","MEAN_ELEMENT_THEORY":"SGP4","EPOCH":"2014-03-02T07:57:21.409056","MEAN_MOTION":"15.64761465","ECCENTRICITY":"0.00331150","INCLINATION":"73.8557","RA_OF_ASC_NODE":"299.6575","ARG_OF_PERICENTER":"166.4823","MEAN_ANOMALY":"193.9018","EPHEMERIS_TYPE":"0","CLASSIFICATION_TYPE":"U","NORAD_CAT_ID":"35666","ELEMENT_SET_NO":"999","REV_AT_EPOCH":"25488","BSTAR":"0.02540800000000","MEAN_MOTION_DOT":"0.02951302","MEAN_MOTION_DDOT":"0.0000000000000","SEMIMAJOR_AXIS":"6752.066","PERIOD":"92.026","APOAPSIS":"396.290","PERIAPSIS":"351.571","OBJECT_TYPE":"DEBRIS","RCS_SIZE":"SMALL","COUNTRY_CODE":"CIS","LAUNCH_DATE":"1993-06-16","SITE":"PKMTR","DECAY_DATE":"2014-03-06","FILE":"1648294","GP_ID":"95404533","TLE_LINE0":"0 COSMOS 2251 DEB","TLE_LINE1":"1 35666U 93036APH 14061.33149779  .02951302  00000-0  25408-1 0  9994","TLE_LINE2":"2 35666 073.8557 299.6575 0033115 166.4823 193.9018 15.64761465254882"},{"CCSDS_OMM_VERS":"3.0","COMMENT":"GENERATED VIA SPACE-TRACK.ORG API","CREATION_DATE":"2026-03-25T17:29:05","ORIGINATOR":"18 SPCS","OBJECT_NAME":"COSMOS 2251 DEB","OBJECT_ID":"1993-036APJ","CENTER_NAME":"EARTH","REF_FRAME":"TEME","TIME_SYSTEM":"UTC","MEAN_ELEMENT_THEORY":"SGP4","EPOCH":"2026-03-25T06:55:51.250368","MEAN_MOTION":"14.61138536","ECCENTRICITY":"0.00181968","INCLINATION":"74.0551","RA_OF_ASC_NODE":"304.4658","ARG_OF_PERICENTER":"336.6222","MEAN_ANOMALY":"23.4115","EPHEMERIS_TYPE":"0","CLASSIFICATION_TYPE":"U","NORAD_CAT_ID":"35667","ELEMENT_SET_NO":"999","REV_AT_EPOCH":"72300","BSTAR":"0.00065232392000","MEAN_MOTION_DOT":"0.00003188","MEAN_MOTION_DDOT":"0.0000000000000","SEMIMAJOR_AXIS":"7067.637","PERIOD":"98.553","APOAPSIS":"702.363","PERIAPSIS":"676.641","OBJECT_TYPE":"DEBRIS","RCS_SIZE":"SMALL","COUNTRY_CODE":"CIS","LAUNCH_DATE":"1993-06-16","SITE":"PKMTR","DECAY_DATE":null,"FILE":"5096884","GP_ID":"317011872","TLE_LINE0":"0 COSMOS 2251 DEB","TLE_LINE1":"1 35667U 93036APJ 26084.28878762  .00003188  00000-0  65232-3 0  9997","TLE_LINE2":"2 35667  74.0551 304.4658 0018197 336.6222  23.4115 14.61138536723007"},{"CCSDS_OMM_VERS":"3.0","COMMENT":"GENERATED VIA SPACE-TRACK.ORG API","CREATION_DATE":"2026-03-26T00:16:28","ORIGINATOR":"18 SPCS","OBJECT_NAME":"COSMOS 2251 DEB","OBJECT_ID":"1993-036APK","CENTER_NAME":"EARTH","REF_FRAME":"TEME","TIME_SYSTEM":"UTC","MEAN_ELEMENT_THEORY":"SGP4","EPOCH":"2026-03-25T13:32:53.467008","MEAN_MOTION":"14.64342291","ECCENTRICITY":"0.00808530","INCLINATION":"74.0467","RA_OF_ASC_NODE":"23.0874","ARG_OF_PERICENTER":"103.0184","MEAN_ANOMALY":"258.0027","EPHEMERIS_TYPE":"0","CLASSIFICATION_TYPE":"U","NORAD_CAT_ID":"35668","ELEMENT_SET_NO":"999","REV_AT_EPOCH":"89152","BSTAR":"0.00025464000000","MEAN_MOTION_DOT":"0.00001378","MEAN_MOTION_DDOT":"0.0000000000000","SEMIMAJOR_AXIS":"7057.325","PERIOD":"98.338","APOAPSIS":"736.250","PERIAPSIS":"622.129","OBJECT_TYPE":"DEBRIS","RCS_SIZE":"SMALL","COUNTRY_CODE":"CIS","LAUNCH_DATE":"1993-06-16","SITE":"PKMTR","DECAY_DATE":null,"FILE":"5097167","GP_ID":"317039940","TLE_LINE0":"0 COSMOS 2251 DEB","TLE_LINE1":"1 35668U 93036APK 26084.56450772  .00001378  00000-0  25464-3 0  9998","TLE_LINE2":"2 35668  74.0467  23.0874 0080853 103.0184 258.0027 14.64342291891528"}]